{
  "norad_id": 49084,
  "name": "ONEWEB-0295",
  "history": [
    {
      "epoch": "2026-04-30T10:10:24.254976Z",
      "apogee_km": 1194.870087460863,
      "perigee_km": 1192.545682518069,
      "latitude_deg": -1.9085480996418857e-05,
      "longitude_deg": 4.3897942018463265,
      "height_km": 1196.5526812125452,
      "semi_major_axis_km": 7571.844884989466,
      "eccentricity": 0.00015349,
      "inclination_deg": 87.9181,
      "raan_deg": 15.3617,
      "arg_perigee_deg": 87.4736,
      "mean_anomaly_deg": 272.6571,
      "mean_motion_rev_day": 13.17650403
    },
    {
      "epoch": "2026-05-02T05:54:45.364896Z",
      "apogee_km": 1194.8770017261832,
      "perigee_km": 1192.5357877485303,
      "latitude_deg": -5.9317771658400686e-05,
      "longitude_deg": 66.14402758358683,
      "height_km": 1196.574978311774,
      "semi_major_axis_km": 7571.843394737357,
      "eccentricity": 0.0001546,
      "inclination_deg": 87.9178,
      "raan_deg": 15.0002,
      "arg_perigee_deg": 88.6573,
      "mean_anomaly_deg": 271.4735,
      "mean_motion_rev_day": 13.17650792
    },
    {
      "epoch": "2026-05-03T16:32:22.045920Z",
      "apogee_km": 1194.8864504700286,
      "perigee_km": 1192.5255498225833,
      "latitude_deg": -1.3094552725102684e-05,
      "longitude_deg": -94.96718653603436,
      "height_km": 1196.5951063729326,
      "semi_major_axis_km": 7571.843000146306,
      "eccentricity": 0.0001559,
      "inclination_deg": 87.9175,
      "raan_deg": 14.7139,
      "arg_perigee_deg": 89.6661,
      "mean_anomaly_deg": 270.4649,
      "mean_motion_rev_day": 13.17650895
    },
    {
      "epoch": "2026-05-04T16:13:53.463072Z",
      "apogee_km": 1194.8922258761822,
      "perigee_km": 1192.5207244997537,
      "latitude_deg": 6.336236718853278e-06,
      "longitude_deg": -91.51709232797194,
      "height_km": 1196.605540477259,
      "semi_major_axis_km": 7571.843475187968,
      "eccentricity": 0.0001566,
      "inclination_deg": 87.9174,
      "raan_deg": 14.5179,
      "arg_perigee_deg": 90.1495,
      "mean_anomaly_deg": 269.9816,
      "mean_motion_rev_day": 13.17650771
    },
    {
      "epoch": "2026-05-05T17:44:45.835296Z",
      "apogee_km": 1194.9066503830254,
      "perigee_km": 1192.5139466366954,
      "latitude_deg": -5.2778618264888554e-05,
      "longitude_deg": -115.49416132126332,
      "height_km": 1196.6238817361073,
      "semi_major_axis_km": 7571.84729850986,
      "eccentricity": 0.000158,
      "inclination_deg": 87.917,
      "raan_deg": 14.3069,
      "arg_perigee_deg": 90.8443,
      "mean_anomaly_deg": 269.2869,
      "mean_motion_rev_day": 13.17649773
    },
    {
      "epoch": "2026-05-06T10:08:53.662848Z",
      "apogee_km": 1194.9287765403496,
      "perigee_km": 1192.4850396374532,
      "latitude_deg": 6.351547061317606e-05,
      "longitude_deg": -2.3361878939434093,
      "height_km": 1196.628433419354,
      "semi_major_axis_km": 7571.843908088901,
      "eccentricity": 0.00016137,
      "inclination_deg": 87.9169,
      "raan_deg": 14.1711,
      "arg_perigee_deg": 91.2026,
      "mean_anomaly_deg": 268.9291,
      "mean_motion_rev_day": 13.17650658
    },
    {
      "epoch": "2026-05-07T09:50:25.251072Z",
      "apogee_km": 1194.9531678830817,
      "perigee_km": 1192.4756581007505,
      "latitude_deg": 1.2985146739680088e-05,
      "longitude_deg": 1.1130887635491253,
      "height_km": 1196.6498298692661,
      "semi_major_axis_km": 7571.851412991916,
      "eccentricity": 0.0001636,
      "inclination_deg": 87.9168,
      "raan_deg": 13.975,
      "arg_perigee_deg": 91.8304,
      "mean_anomaly_deg": 268.3015,
      "mean_motion_rev_day": 13.17648699
    },
    {
      "epoch": "2026-05-08T05:53:15.012960Z",
      "apogee_km": 1194.965866130863,
      "perigee_km": 1192.4610979913969,
      "latitude_deg": 6.178042381377074e-06,
      "longitude_deg": 59.41643714094992,
      "height_km": 1196.6481047030097,
      "semi_major_axis_km": 7571.85048206113,
      "eccentricity": 0.0001654,
      "inclination_deg": 87.9174,
      "raan_deg": 13.809,
      "arg_perigee_deg": 91.7753,
      "mean_anomaly_deg": 268.3568,
      "mean_motion_rev_day": 13.17648942
    },
    {
      "epoch": "2026-05-09T16:30:51.998976Z",
      "apogee_km": 1194.9831375955164,
      "perigee_km": 1192.4571660496686,
      "latitude_deg": 5.2690793649252e-05,
      "longitude_deg": -101.69605097492936,
      "height_km": 1196.6676119488534,
      "semi_major_axis_km": 7571.857151822593,
      "eccentricity": 0.0001668,
      "inclination_deg": 87.9172,
      "raan_deg": 13.5227,
      "arg_perigee_deg": 92.3446,
      "mean_anomaly_deg": 267.7877,
      "mean_motion_rev_day": 13.17647201
    }
  ]
}